[{"OBJECT_NAME":"FORMOSAT-5","OBJECT_ID":"2017-049A","EPOCH":"2026-03-09T21:06:30.002688","MEAN_MOTION":14.50821744,"ECCENTRICITY":0.00116882,"INCLINATION":98.2311,"RA_OF_ASC_NODE":146.3833,"ARG_OF_PERICENTER":35.9482,"MEAN_ANOMALY":324.2497,"EPHEMERIS_TYPE":0,"CLASSIFICATION_TYPE":"U","NORAD_CAT_ID":42920,"ELEMENT_SET_NO":999,"REV_AT_EPOCH":45227,"BSTAR":8.2289571e-5,"MEAN_MOTION_DOT":2.81e-6,"MEAN_MOTION_DDOT":0},{"OBJECT_NAME":"ASO-S","OBJECT_ID":"2022-129A","EPOCH":"2026-03-09T22:56:02.207040","MEAN_MOTION":14.52012554,"ECCENTRICITY":0.00151338,"INCLINATION":98.2779,"RA_OF_ASC_NODE":75.4501,"ARG_OF_PERICENTER":41.7143,"MEAN_ANOMALY":318.5203,"EPHEMERIS_TYPE":0,"CLASSIFICATION_TYPE":"U","NORAD_CAT_ID":54029,"ELEMENT_SET_NO":999,"REV_AT_EPOCH":18102,"BSTAR":8.1391382e-5,"MEAN_MOTION_DOT":2.85e-6,"MEAN_MOTION_DDOT":0}]
